DELTA 2 R/B(1)          
1 20453U 90008B   25338.28464400  .00067166  00000+0  11063-2 0  9998
2 20453  35.6064  75.0936 0112335 101.2406 260.0975 15.44270920911328
COSMOS 2058             
1 20465U 90010A   25338.21180417  .00009005  00000+0  54693-3 0  9995
2 20465  82.4631 141.4193 0008487 309.3224  50.7252 15.10344951927828
SL-14 R/B               
1 20466U 90010B   25338.31401603  .00000873  00000+0  10316-3 0  9998
2 20466  82.5022 356.9609 0018332 252.9026 107.0181 14.83459596914343
SL-14 R/B               
1 20511U 90018B   25338.30768433  .00000950  00000+0  11647-3 0  9997
2 20511  82.5203 312.2463 0017592  49.6293 310.6454 14.82033125908457
HST                     
1 20580U 90037B   25338.30113914  .00015652  00000+0  55018-3 0  9997
2 20580  28.4702 329.9177 0002049 143.2197 216.8539 15.27866357758701
SL-16 R/B               
1 20625U 90046B   25338.19212729  .00000314  00000+0  18642-3 0  9999
2 20625  70.9983 138.4723 0011904  89.0981 271.1506 14.14998979834885
COSMOS 2084             
1 20663U 90055A   25338.26250916  .00006356  00000+0  45504-3 0  9998
2 20663  62.7911 300.8758 0033042 173.6023 186.5506 15.04933821921953
SL-6 R/B(2)             
1 20666U 90055D   25338.05196166  .00004483  00000+0  34529-3 0  9998
2 20666  62.7834 218.9339 0011941 302.0337  57.9601 15.03014611923814
SL-8 R/B                
1 20775U 90078B   25338.11037705  .00039227  00000+0  12149-2 0  9991
2 20775  82.9043 337.0324 0374797 334.9233  23.4173 14.85391490795099
SL-8 R/B                
1 21088U 91006B   25338.26312550  .00000116  00000+0  10136-3 0  9991
2 21088  82.9429 241.0174 0021497 304.9212 169.8740 13.77488629750932
OKEAN-3                 
1 21397U 91039A   25338.29966436  .00007311  00000+0  52592-3 0  9997
2 21397  82.5188  69.2163 0013085 296.5443  63.4441 15.04032637850694
COSMOS 2151             
1 21422U 91042A   25338.28279917  .00003674  00000+0  29577-3 0  9995
2 21422  82.4959 175.6526 0013342  27.6162 332.5768 14.99637708848894
