CCSDS_OMM_VERS = 2.0
CREATION_DATE  = 
ORIGINATOR     = 

OBJECT_NAME    = DELTA 2 R/B(1)
OBJECT_ID      = 1990-008B
CENTER_NAME    = EARTH
REF_FRAME      = TEME
TIME_SYSTEM    = UTC
MEAN_ELEMENT_THEORY = SGP/SGP4

EPOCH          = 2025-12-04T06:49:53.241600
MEAN_MOTION    = 15.44270920
ECCENTRICITY   = .01123355
INCLINATION    = 35.6064
RA_OF_ASC_NODE = 75.0936
ARG_OF_PERICENTER = 101.2406
MEAN_ANOMALY   = 260.0975

EPHEMERIS_TYPE = 0
CLASSIFICATION_TYPE = U
NORAD_CAT_ID   = 20453
ELEMENT_SET_NO = 999
REV_AT_EPOCH   = 91132
BSTAR          = .1106302E-2
MEAN_MOTION_DOT = .67166E-3
MEAN_MOTION_DDOT = 0

CCSDS_OMM_VERS = 2.0
CREATION_DATE  = 
ORIGINATOR     = 

OBJECT_NAME    = COSMOS 2058
OBJECT_ID      = 1990-010A
CENTER_NAME    = EARTH
REF_FRAME      = TEME
TIME_SYSTEM    = UTC
MEAN_ELEMENT_THEORY = SGP/SGP4

EPOCH          = 2025-12-04T05:04:59.880288
MEAN_MOTION    = 15.10344951
ECCENTRICITY   = .00084877
INCLINATION    = 82.4631
RA_OF_ASC_NODE = 141.4193
ARG_OF_PERICENTER = 309.3224
MEAN_ANOMALY   = 50.7252

EPHEMERIS_TYPE = 0
CLASSIFICATION_TYPE = U
NORAD_CAT_ID   = 20465
ELEMENT_SET_NO = 999
REV_AT_EPOCH   = 92782
BSTAR          = .54692685E-3
MEAN_MOTION_DOT = .9005E-4
MEAN_MOTION_DDOT = 0

CCSDS_OMM_VERS = 2.0
CREATION_DATE  = 
ORIGINATOR     = 

OBJECT_NAME    = SL-14 R/B
OBJECT_ID      = 1990-010B
CENTER_NAME    = EARTH
REF_FRAME      = TEME
TIME_SYSTEM    = UTC
MEAN_ELEMENT_THEORY = SGP/SGP4

EPOCH          = 2025-12-04T07:32:10.984992
MEAN_MOTION    = 14.83459596
ECCENTRICITY   = .00183321
INCLINATION    = 82.5022
RA_OF_ASC_NODE = 356.9609
ARG_OF_PERICENTER = 252.9026
MEAN_ANOMALY   = 107.0181

EPHEMERIS_TYPE = 0
CLASSIFICATION_TYPE = U
NORAD_CAT_ID   = 20466
ELEMENT_SET_NO = 999
REV_AT_EPOCH   = 91434
BSTAR          = .10315616E-3
MEAN_MOTION_DOT = .873E-5
MEAN_MOTION_DDOT = 0

CCSDS_OMM_VERS = 2.0
CREATION_DATE  = 
ORIGINATOR     = 

OBJECT_NAME    = SL-14 R/B
OBJECT_ID      = 1990-018B
CENTER_NAME    = EARTH
REF_FRAME      = TEME
TIME_SYSTEM    = UTC
MEAN_ELEMENT_THEORY = SGP/SGP4

EPOCH          = 2025-12-04T07:23:03.926112
MEAN_MOTION    = 14.82033125
ECCENTRICITY   = .00175924
INCLINATION    = 82.5203
RA_OF_ASC_NODE = 312.2463
ARG_OF_PERICENTER = 49.6293
MEAN_ANOMALY   = 310.6454

EPHEMERIS_TYPE = 0
CLASSIFICATION_TYPE = U
NORAD_CAT_ID   = 20511
ELEMENT_SET_NO = 999
REV_AT_EPOCH   = 90845
BSTAR          = .11647201E-3
MEAN_MOTION_DOT = .95E-5
MEAN_MOTION_DDOT = 0

CCSDS_OMM_VERS = 2.0
CREATION_DATE  = 
ORIGINATOR     = 

OBJECT_NAME    = HST
OBJECT_ID      = 1990-037B
CENTER_NAME    = EARTH
REF_FRAME      = TEME
TIME_SYSTEM    = UTC
MEAN_ELEMENT_THEORY = SGP/SGP4

EPOCH          = 2025-12-04T07:13:38.421696
MEAN_MOTION    = 15.27866357
ECCENTRICITY   = .00020491
INCLINATION    = 28.4702
RA_OF_ASC_NODE = 329.9177
ARG_OF_PERICENTER = 143.2197
MEAN_ANOMALY   = 216.8539

EPHEMERIS_TYPE = 0
CLASSIFICATION_TYPE = U
NORAD_CAT_ID   = 20580
ELEMENT_SET_NO = 999
REV_AT_EPOCH   = 75870
BSTAR          = .55017975E-3
MEAN_MOTION_DOT = .15652E-3
MEAN_MOTION_DDOT = 0

CCSDS_OMM_VERS = 2.0
CREATION_DATE  = 
ORIGINATOR     = 

OBJECT_NAME    = SL-16 R/B
OBJECT_ID      = 1990-046B
CENTER_NAME    = EARTH
REF_FRAME      = TEME
TIME_SYSTEM    = UTC
MEAN_ELEMENT_THEORY = SGP/SGP4

EPOCH          = 2025-12-04T04:36:39.797856
MEAN_MOTION    = 14.14998979
ECCENTRICITY   = .00119045
INCLINATION    = 70.9983
RA_OF_ASC_NODE = 138.4723
ARG_OF_PERICENTER = 89.0981
MEAN_ANOMALY   = 271.1506

EPHEMERIS_TYPE = 0
CLASSIFICATION_TYPE = U
NORAD_CAT_ID   = 20625
ELEMENT_SET_NO = 999
REV_AT_EPOCH   = 83488
BSTAR          = .18642125E-3
MEAN_MOTION_DOT = .314E-5
MEAN_MOTION_DDOT = 0

CCSDS_OMM_VERS = 2.0
CREATION_DATE  = 
ORIGINATOR     = 

OBJECT_NAME    = COSMOS 2084
OBJECT_ID      = 1990-055A
CENTER_NAME    = EARTH
REF_FRAME      = TEME
TIME_SYSTEM    = UTC
MEAN_ELEMENT_THEORY = SGP/SGP4

EPOCH          = 2025-12-04T06:18:00.791424
MEAN_MOTION    = 15.04933821
ECCENTRICITY   = .0033042
INCLINATION    = 62.7911
RA_OF_ASC_NODE = 300.8758
ARG_OF_PERICENTER = 173.6023
MEAN_ANOMALY   = 186.5506

EPHEMERIS_TYPE = 0
CLASSIFICATION_TYPE = U
NORAD_CAT_ID   = 20663
ELEMENT_SET_NO = 999
REV_AT_EPOCH   = 92195
BSTAR          = .45504107E-3
MEAN_MOTION_DOT = .6356E-4
MEAN_MOTION_DDOT = 0

CCSDS_OMM_VERS = 2.0
CREATION_DATE  = 
ORIGINATOR     = 

OBJECT_NAME    = SL-6 R/B(2)
OBJECT_ID      = 1990-055D
CENTER_NAME    = EARTH
REF_FRAME      = TEME
TIME_SYSTEM    = UTC
MEAN_ELEMENT_THEORY = SGP/SGP4

EPOCH          = 2025-12-04T01:14:49.487424
MEAN_MOTION    = 15.03014611
ECCENTRICITY   = .00119419
INCLINATION    = 62.7834
RA_OF_ASC_NODE = 218.9339
ARG_OF_PERICENTER = 302.0337
MEAN_ANOMALY   = 57.9601

EPHEMERIS_TYPE = 0
CLASSIFICATION_TYPE = U
NORAD_CAT_ID   = 20666
ELEMENT_SET_NO = 999
REV_AT_EPOCH   = 92381
BSTAR          = .34528999E-3
MEAN_MOTION_DOT = .4483E-4
MEAN_MOTION_DDOT = 0

CCSDS_OMM_VERS = 2.0
CREATION_DATE  = 
ORIGINATOR     = 

OBJECT_NAME    = SL-8 R/B
OBJECT_ID      = 1990-078B
CENTER_NAME    = EARTH
REF_FRAME      = TEME
TIME_SYSTEM    = UTC
MEAN_ELEMENT_THEORY = SGP/SGP4

EPOCH          = 2025-12-04T02:38:56.577120
MEAN_MOTION    = 14.85391490
ECCENTRICITY   = .03747977
INCLINATION    = 82.9043
RA_OF_ASC_NODE = 337.0324
ARG_OF_PERICENTER = 334.9233
MEAN_ANOMALY   = 23.4173

EPHEMERIS_TYPE = 0
CLASSIFICATION_TYPE = U
NORAD_CAT_ID   = 20775
ELEMENT_SET_NO = 999
REV_AT_EPOCH   = 79509
BSTAR          = .12148848E-2
MEAN_MOTION_DOT = .39227E-3
MEAN_MOTION_DDOT = 0

CCSDS_OMM_VERS = 2.0
CREATION_DATE  = 
ORIGINATOR     = 

OBJECT_NAME    = SL-8 R/B
OBJECT_ID      = 1991-006B
CENTER_NAME    = EARTH
REF_FRAME      = TEME
TIME_SYSTEM    = UTC
MEAN_ELEMENT_THEORY = SGP/SGP4

EPOCH          = 2025-12-04T06:18:54.043200
MEAN_MOTION    = 13.77488629
ECCENTRICITY   = .00214973
INCLINATION    = 82.9429
RA_OF_ASC_NODE = 241.0174
ARG_OF_PERICENTER = 304.9212
MEAN_ANOMALY   = 169.8740

EPHEMERIS_TYPE = 0
CLASSIFICATION_TYPE = U
NORAD_CAT_ID   = 21088
ELEMENT_SET_NO = 999
REV_AT_EPOCH   = 75093
BSTAR          = .10135567E-3
MEAN_MOTION_DOT = .116E-5
MEAN_MOTION_DDOT = 0

CCSDS_OMM_VERS = 2.0
CREATION_DATE  = 
ORIGINATOR     = 

OBJECT_NAME    = OKEAN-3
OBJECT_ID      = 1991-039A
CENTER_NAME    = EARTH
REF_FRAME      = TEME
TIME_SYSTEM    = UTC
MEAN_ELEMENT_THEORY = SGP/SGP4

EPOCH          = 2025-12-04T07:11:31.000704
MEAN_MOTION    = 15.04032637
ECCENTRICITY   = .00130856
INCLINATION    = 82.5188
RA_OF_ASC_NODE = 69.2163
ARG_OF_PERICENTER = 296.5443
MEAN_ANOMALY   = 63.4441

EPHEMERIS_TYPE = 0
CLASSIFICATION_TYPE = U
NORAD_CAT_ID   = 21397
ELEMENT_SET_NO = 999
REV_AT_EPOCH   = 85069
BSTAR          = .52591938E-3
MEAN_MOTION_DOT = .7311E-4
MEAN_MOTION_DDOT = 0

CCSDS_OMM_VERS = 2.0
CREATION_DATE  = 
ORIGINATOR     = 

OBJECT_NAME    = COSMOS 2151
OBJECT_ID      = 1991-042A
CENTER_NAME    = EARTH
REF_FRAME      = TEME
TIME_SYSTEM    = UTC
MEAN_ELEMENT_THEORY = SGP/SGP4

EPOCH          = 2025-12-04T06:47:13.848288
MEAN_MOTION    = 14.99637708
ECCENTRICITY   = .0013342
INCLINATION    = 82.4959
RA_OF_ASC_NODE = 175.6526
ARG_OF_PERICENTER = 27.6162
MEAN_ANOMALY   = 332.5768

EPHEMERIS_TYPE = 0
CLASSIFICATION_TYPE = U
NORAD_CAT_ID   = 21422
ELEMENT_SET_NO = 999
REV_AT_EPOCH   = 84889
BSTAR          = .29576902E-3
MEAN_MOTION_DOT = .3674E-4
MEAN_MOTION_DDOT = 0

